[{"FacID":"DE007","Name":"Newark AFRC","Status":"Active","Area":"60,456","Address":"1001 Ogletown Rd.","City":"Newark","State":"DE","Zip":19711,"RFOS":"Danielle Barrett","AFOS":"Wilfred Handel","PHONE":"316-737-4769","assets":[{"assetID":"test002","FacID":"DE007","building":"test2","floor":"test2","roomID":"test2","description":"test2","note":"test2","uid":"VnqcxRghmsCf65edtrs"},{"assetID":"GT001south","FacID":"DE007","building":"","floor":"","roomID":"","description":"grease trap","note":"threads are stripped","uid":"VnqcxRghmsCf"}]},{"FacID":"MD002","Name":"Curtis Bay US Army Reservce Center","Status":"Active","Area":"54,950","Address":"700 E. Ordiance Rd.","City":"Baltimore","State":"MD","Zip":21226,"RFOS":"Danielle Barrett","AFOS":"Chris Huebler","PHONE":"443-614-7707","assets":[]},{"FacID":"MD013","Name":"MG Benjamin L. Hunton MemUSARC","Status":"Active","Area":"60,415","Address":"8791 Snouffers School Rd.","City":"Gaithersburt,","State":"MD","Zip":20879,"RFOS":"Danielle Barrett","AFOS":"Nathan Rigney","PHONE":"540-333-0154","assets":[]},{"FacID":"MD019","Name":"SSG Isadore S. Jachman USARC","Status":"Active","Area":"7,317","Address":"12100 Greenspring Ave.","City":"OwingsMills","State":"MD","Zip":21117,"RFOS":"Danielle Barrett","AFOS":"Wilfred Handel","PHONE":"316-737-4769","assets":[]},{"FacID":"MD021","Name":"Maus-Warfield USARC","Status":"Active","Area":"34,888","Address":"1850 Baltimore Rd.","City":"Rockville","State":"MD","Zip":20851,"RFOS":"Danielle Barrett","AFOS":"Nathan Rigney","PHONE":"540-333-0154","assets":[]},{"FacID":"MD024","Name":"AMSA #83 (M) Curtis Bay Ldg. 1","Status":"Active","Area":"40,312","Address":"700 Ordanance Rd.","City":"Baltimore","State":"MD","Zip":21226,"RFOS":"Danielle Barrett","AFOS":"Chris Huebler","PHONE":"443-614-7707","assets":[]},{"FacID":"MD066","Name":"Charles County USARC","Status":"Active","Area":"41,200","Address":"4600 Fox Trail Place","City":"White Plains","State":"MD","Zip":20695,"RFOS":"Danielle Barrett","AFOS":"Nathan Rigney","PHONE":"540-333-0154","assets":[]},{"FacID":"VA002","Name":"MG Albert C. Lieber USARC","Status":"Active","Area":"27,457","Address":"6901 Telegraph Rd.","City":"Alexandria","State":"VA","Zip":22310,"RFOS":"Ty Haughn","AFOS":"Robert Blackman","PHONE":"205-533-3128","assets":[]},{"FacID":"VA006","Name":"TSGT Frank D. Peregory USARC","Status":"Active","Area":"16,641","Address":"1634 Cherry Ave.","City":"Charlottesville","State":"VA","Zip":22903,"RFOS":"Ty Haughn","AFOS":"Don Hudson","PHONE":"540-266-4003","assets":[]},{"FacID":"VA011","Name":"Culpepper Minutemen Mem USAR","Status":"Active","Area":"12,795","Address":"1821 Industry St.","City":"Culpepper","State":"VA","Zip":22701,"RFOS":"Ty Haughn","AFOS":"Don Hudson","PHONE":"540-266-4003","assets":[{"assetID":"CG6635","FacID":"VA011","building":"1","floor":"1","roomID":"t334","description":"fan coil unit","defects":"","note":"","uid":"tJDXkdYzpnmv"},{"assetID":"FCU89776","FacID":"VA011","building":"1","floor":"1","roomID":"T117","description":"Fan Coil Unit","defects":"","note":"","uid":"KomSWPlEGRMF"},{"assetID":"FCU89777","FacID":"VA011","building":"1","floor":"1","roomID":"T118","description":"Fan Coil Unit","defects":"","note":"","uid":"HNAowaOihgsL"},{"assetID":"FCU89778","FacID":"VA011","building":"1","floor":"1","roomID":"T118","description":"Fan Coil Unit","defects":"","note":"","uid":"vVWjzuaEhUTn"}]},{"FacID":"VA020","Name":"","Status":"Active","Area":"69,458","Address":"8831 John J. Kingman Rd.","City":"Fort Belvoir","State":"VA","Zip":"22060","RFOS":"Ty Haughn","AFOS":"Robert Blackman","PHONE":"205-533-3128","assets":[]},{"FacID":"VA021","Name":"","Status":"Active","Area":"15,149","Address":"9020 Gunston Rd.","City":"Fort Belvoir","State":"VA","Zip":"22060","RFOS":"Ty Haughn","AFOS":"Robert Blackman","PHONE":"205-533-3128","assets":[]},{"FacID":"VA048","Name":"1LT Jimmie L Monteith USARC","Status":"Active","Area":"","Address":"1741 E Belt Blvd.","City":"Richmond","State":"VA","Zip":"23224","RFOS":"Ty Haughn","AFOS":"Robert Blackman","PHONE":"205-533-3128","assets":[]},{"FacID":"VA049","Name":"Col Ernest H. Dervishian USARC","Status":"Active","Area":"67,022","Address":"6700 Strathmore Rd.","City":"North Chesterfield","State":"VA","Zip":"23237","RFOS":"Ty Haughn","AFOS":"Robert Blackman","PHONE":"205-533-3128","assets":[]},{"FacID":"VA050","Name":"Richmond AFRC","Status":"Active","Area":"45,474","Address":"6002 Strathmore Rd.","City":"North Chesterfield","State":"VA","Zip":"23232","RFOS":"Ty Haughn","AFOS":"Robert Blackman","PHONE":"205-533-3128","assets":[]},{"FacID":"VA099","Name":"Bedford USARC","Status":"Active","Area":"55,525","Address":"1117 Harmony Dr.","City":"Bedford","State":"VA","Zip":"24523","RFOS":"Ty Haughn","AFOS":"Don Hudson","PHONE":"540-266-4003","assets":[]},{"FacID":"VA701","Name":"Suffolk USARC","Status":"Active","Area":"22,026","Address":"886 Carolina Rd.","City":"Suffolk","State":"VA","Zip":"23434","RFOS":"Ty Haughn","AFOS":"Antonio Royster","PHONE":"407-375-2958","assets":[]},{"FacID":"DE001","Name":"Fleming-Godwin USARC","Status":"Inactive","Area":"16,962","Address":"344 North New St.","City":"Dover","State":"DE","Zip":"19904","RFOS":"","AFOS":"","PHONE":"","assets":[]},{"FacID":"DE002","Name":"Cape Henlopen USARC","Status":"Inactive","Area":"36,774","Address":"1137 Savannah Rd.","City":"Lewes","State":"DE","Zip":"19958","RFOS":"","AFOS":"","PHONE":"","assets":[]},{"FacID":"MD003","Name":"PFC Carl Vernon Sheriddan USARC","Status":"Inactive","Area":"36,739","Address":"5515 Liverty Heights Ave.","City":"Baltimore","State":"MD","Zip":"21207","RFOS":"","AFOS":"","PHONE":"","assets":[]},{"FacID":"MD005","Name":"Jecelin USARC","Status":"Inactive","Area":"26,129","Address":"1900 Broening Highway","City":"Baltimore","State":"MD","Zip":"21224","RFOS":"","AFOS":"","PHONE":"","assets":[{"assetID":"abc123","FacID":"MD005","building":"main","floor":"1","roomID":"T45","description":"air curtain","defects":"","note":"","uid":"HKdXaQcATqrR"}]},{"FacID":"MD016","Name":"Southern Maryland Mem USARC","Status":"Inactive","Area":"41,330","Address":"5550 Dowerhouse Rd.","City":"Upper Marlboro","State":"MD","Zip":"20772","RFOS":"","AFOS":"","PHONE":"","assets":[]},{"FacID":"MD020","Name":"Prince Georges Cty MemUSARC","Status":"Inactive","Area":"33,547","Address":"6601 Baltimore Ave.","City":"Riverdale","State":"MD","Zip":"20737","RFOS":"","AFOS":"","PHONE":"","assets":[]},{"FacID":"MD040","Name":"","Status":"Inactive","Area":"","Address":"2118 Annapolis Rd.","City":"Fort Mead","State":"MD","Zip":"20755","RFOS":"","AFOS":"","PHONE":"","assets":[]},{"FacID":"VA024","Name":"","Status":"Inactive","Area":"","Address":"","City":"","State":"","Zip":"","RFOS":"Ty Haughn","AFOS":"Antonio Royster","PHONE":"407-375-2958","assets":[]},{"FacID":"VA707","Name":"","Status":"Inactive","Area":"","Address":"","City":"","State":"","Zip":"","RFOS":"Ty Haughn","AFOS":"Antonio Royster","PHONE":"407-375-2958","assets":[]},{"FacID":"VA056","Name":"","Status":"Inactive","Area":"","Address":"","City":"","State":"","Zip":"","RFOS":"Ty Haughn","AFOS":"Antonio Royster","PHONE":"407-375-2959","assets":[]}]